*******************************************************************************
JPL/HORIZONS               233 Asterope (A883 JA)          2020-Jun-22 08:42:43
Rec #:     233 (+COV) Soln.date: 2020-May-20_01:01:43   # obs: 2793 (1897-2020)
 
IAU76/J2000 helio. ecliptic osc. elements (au, days, deg., period=Julian yrs):
 
  EPOCH=  2454480.5 ! 2008-Jan-15.00 (TDB)         Residual RMS= .31822
   EC= .1009278932008879   QR= 2.39171671808875    TP= 2453825.9429519488
   OM= 222.1114053224543   W=  126.2705293863542   IN= 7.675076278119469
   A= 2.660205672049787    MA= 148.6889706024211   ADIST= 2.928694626010825
   PER= 4.33891            N= .227159675           ANGMOM= .027913593
   DAN= 2.80031            DDN= 2.48475            L= 348.6281894
   B= 6.1813919            MOID= 1.39451003        TP= 2006-Mar-31.4429519488
 
Asteroid physical parameters (km, seconds, rotational period in hours):
   GM= n.a.                RAD= 49.836             ROTPER= 19.7
   H= 8.3                  G= .150                 B-V= .775
                           ALBEDO= .094            STYP= K
 
ASTEROID comments: 
1: soln ref.= JPL#85, OCC=0
2: source=ORB
*******************************************************************************
 
 
*******************************************************************************
Ephemeris / WWW_USER Mon Jun 22 08:42:43 2020 Pasadena, USA      / Horizons
*******************************************************************************
Target body name: 233 Asterope (A883 JA)          {source: JPL#85}
Center body name: Solar System Barycenter (0)     {source: DE431}
Center-site name: BODY CENTER
*******************************************************************************
Start time      : A.D. 1969-Jun-28 00:00:00.0000 TDB
Stop  time      : A.D. 2071-May-04 00:00:00.0000 TDB
Step-size       : 7200 minutes
*******************************************************************************
Center geodetic : 0.00000000,0.00000000,0.0000000 {E-lon(deg),Lat(deg),Alt(km)}
Center cylindric: 0.00000000,0.00000000,0.0000000 {E-lon(deg),Dxy(km),Dz(km)}
Center radii    : (undefined)                                                  
Small perturbers: Yes                             {source: SB431-N16}
Output units    : AU-D
Output type     : GEOMETRIC cartesian states
Output format   : 2 (position and velocity)
Reference frame : Ecliptic of J2000.0
*******************************************************************************
Initial IAU76/J2000 heliocentric ecliptic osculating elements (au, days, deg.):
  EPOCH=  2454480.5 ! 2008-Jan-15.00 (TDB)         Residual RMS= .31822        
   EC= .1009278932008879   QR= 2.39171671808875    TP= 2453825.9429519488      
   OM= 222.1114053224543   W=  126.2705293863542   IN= 7.675076278119469       
  Equivalent ICRF heliocentric equatorial cartesian coordinates (au, au/d):
   X=-2.280067328665947E+00  Y= 1.751985396947576E+00  Z= 3.449019640208902E-01
  VX=-6.247644202814696E-03 VY=-6.813437620721534E-03 VZ=-2.768214148064444E-03
Asteroid physical parameters (km, seconds, rotational period in hours):        
   GM= n.a.                RAD= 49.836             ROTPER= 19.7                
   H= 8.3                  G= .150                 B-V= .775                   
                           ALBEDO= .094            STYP= K                     
*******************************************************************************
            JDTDB,            Calendar Date (TDB),        delta-T,                      X,                      Y,                      Z,                     VX,                     VY,                     VZ,
******************************************************************************************************************************************************************************************************************
$$SOE
2473160.500000000, A.D. 2059-Mar-08 00:00:00.0000,      69.185445,  8.330149443070296E-01,  2.450289297612500E+00, -1.745093544426781E-01, -9.762853070308207E-03,  4.368199539295474E-03, -1.316787963332004E-03,
2473165.500000000, A.D. 2059-Mar-13 00:00:00.0000,      69.185508,  7.840285156765561E-01,  2.471613573858694E+00, -1.810561681328763E-01, -9.830963642931621E-03,  4.161425459838191E-03, -1.301861379629918E-03,
2473170.500000000, A.D. 2059-Mar-18 00:00:00.0000,      69.185561,  7.347128341636415E-01,  2.491902781003326E+00, -1.875272173178418E-01, -9.894558513580289E-03,  3.954188585031509E-03, -1.286484242255604E-03,
2473175.500000000, A.D. 2059-Mar-23 00:00:00.0000,      69.185600,  6.850904122120225E-01,  2.511154853590018E+00, -1.939202804167301E-01, -9.953664447351089E-03,  3.746587967428645E-03, -1.270669020278946E-03,
2473180.500000000, A.D. 2059-Mar-28 00:00:00.0000,      69.185626,  6.351836234522370E-01,  2.529368216077804E+00, -2.002331980954100E-01, -1.000831018611691E-02,  3.538720518113914E-03, -1.254428141420771E-03,
2473185.500000000, A.D. 2059-Apr-02 00:00:00.0000,      69.185639,  5.850146930905187E-01,  2.546541772099816E+00, -2.064638730318590E-01, -1.005852633979493E-02,  3.330680993892404E-03, -1.237773981021049E-03,
2473190.500000000, A.D. 2059-Apr-07 00:00:00.0000,      69.185641,  5.346056888355899E-01,  2.562674893669353E+00, -2.126102696280689E-01, -1.010434527993712E-02,  3.122561989010473E-03, -1.220718851672357E-03,
2473195.500000000, A.D. 2059-Apr-12 00:00:00.0000,      69.185633,  4.839785123514470E-01,  2.577767410355341E+00, -2.186704136717543E-01, -1.014580103576440E-02,  2.914453931146927E-03, -1.203274993506292E-03,
2473200.500000000, A.D. 2059-Apr-17 00:00:00.0000,      69.185613,  4.331548912236221E-01,  2.591819598447897E+00, -2.246423919510960E-01, -1.018292919275882E-02,  2.706445081421362E-03, -1.185454565116627E-03,
2473205.500000000, A.D. 2059-Apr-22 00:00:00.0000,      69.185580,  3.821563714258749E-01,  2.604832170133452E+00, -2.305243518256513E-01, -1.021576679391634E-02,  2.498621538171760E-03, -1.167269635101332E-03,
2473210.500000000, A.D. 2059-Apr-27 00:00:00.0000,      69.185534,  3.310043102737692E-01,  2.616806262697690E+00, -2.363145007564829E-01, -1.024435224375520E-02,  2.291067244259784E-03, -1.148732174203506E-03,
2473215.500000000, A.D. 2059-May-02 00:00:00.0000,      69.185477,  2.797198698511258E-01,  2.627743427773353E+00, -2.420111057984463E-01, -1.026872521517301E-02,  2.083863997680595E-03, -1.129854048030973E-03,
2473220.500000000, A.D. 2059-May-07 00:00:00.0000,      69.185411,  2.283240108948666E-01,  2.637645620648987E+00, -2.476124930574908E-01, -1.028892655925035E-02,  1.877091465307913E-03, -1.110647010341977E-03,
2473225.500000000, A.D. 2059-May-12 00:00:00.0000,      69.185335,  1.768374871233200E-01,  2.646515189654126E+00, -2.531170471158363E-01, -1.030499821805779E-02,  1.670827199731473E-03, -1.091122696917371E-03,
2473230.500000000, A.D. 2059-May-17 00:00:00.0000,      69.185250,  1.252808399932396E-01,  2.654354865636459E+00, -2.585232104281085E-01, -1.031698314030959E-02,  1.465146659186348E-03, -1.071292620081793E-03,
2473235.500000000, A.D. 2059-May-22 00:00:00.0000,      69.185155,  7.367439387238427E-02,  2.661167751545332E+00, -2.638294826916835E-01, -1.032492519943356E-02,  1.260123229961546E-03, -1.051168163832224E-03,
2473240.500000000, A.D. 2059-May-27 00:00:00.0000,      69.185050,  2.203825161522333E-02,  2.666957312130486E+00, -2.690344201934676E-01, -1.032886911442916E-02,  1.055828249925490E-03, -1.030760579224255E-03,
2473245.500000000, A.D. 2059-Jun-01 00:00:00.0000,      69.184938, -2.960770947510047E-02,  2.671727363761711E+00, -2.741366351340644E-01, -1.032886037461721E-02,  8.523310336509262E-04, -1.010080979995659E-03,
2473250.500000000, A.D. 2059-Jun-06 00:00:00.0000,      69.184820, -8.124384131777100E-02,  2.675482064381495E+00, -2.791347949315800E-01, -1.032494516786264E-02,  6.496989005900335E-04, -9.891403388578223E-04,
2473255.500000000, A.D. 2059-Jun-11 00:00:00.0000,      69.184699, -1.328507283727483E-01,  2.678225903605309E+00, -2.840276215087248E-01, -1.031717031125807E-02,  4.479972057295181E-04, -9.679494844809801E-04,
2473260.500000000, A.D. 2059-Jun-16 00:00:00.0000,      69.184571, -1.844091906188423E-01,  2.679963692978967E+00, -2.888138905660301E-01, -1.030558318435352E-02,  2.472893716665187E-04, -9.465190989267201E-04,
2473265.500000000, A.D. 2059-Jun-21 00:00:00.0000,      69.184439, -2.359002862049065E-01,  2.680700556399365E+00, -2.934924308431648E-01, -1.029023166518965E-02,  4.763692187934770E-05, -9.248597154542854E-04,
2473270.500000000, A.D. 2059-Jun-26 00:00:00.0000,      69.184302, -2.873053137881847E-01,  2.680441920704542E+00, -2.980621233702359E-01, -1.027116406910784E-02, -1.509004848143139E-04, -9.029817167097775E-04,
2473275.500000000, A.D. 2059-Jul-01 00:00:00.0000,      69.184163, -3.386058145733419E-01,  2.679193506438739E+00, -3.025219007109669E-01, -1.024842909018642E-02, -3.482650187625375E-04, -8.808953332806467E-04,
2473280.500000000, A.D. 2059-Jul-06 00:00:00.0000,      69.184025, -3.897835740649875E-01,  2.676961318796979E+00, -3.068707461994500E-01, -1.022207574518847E-02, -5.444006432135196E-04, -8.586106425587947E-04,
2473285.500000000, A.D. 2059-Jul-11 00:00:00.0000,      69.183887, -4.408206235461287E-01,  2.673751638752235E+00, -3.111076931718175E-01, -1.019215331999079E-02, -7.392530775949719E-04, -8.361375678317244E-04,
2473290.500000000, A.D. 2059-Jul-16 00:00:00.0000,      69.183750, -4.916992412951216E-01,  2.669571014366800E+00, -3.152318241937828E-01, -1.015871131857778E-02, -9.327697605905164E-04, -8.134858775300355E-04,
2473295.500000000, A.D. 2059-Jul-21 00:00:00.0000,      69.183614, -5.424019535543457E-01,  2.664426252288485E+00, -3.192422702847301E-01, -1.012179941476486E-02, -1.124899813130234E-03, -7.906651845958577E-04,
